STARLINK-30908          
1 58424U 23180Y   26068.00995477  .00001946  00000+0  82217-4 0  9993
2 58424  43.0016  56.1487 0001301 269.1344  90.9358 15.26739149127522
2025-155V               
1 64895U 25155V   26068.85787115  .00013705  00000+0  51002-3 0  9990
2 64895  97.4485  37.2490 0008035 152.8264 207.3397 15.27583301 65579
